BRO-14                  
1 60551U 24149CM  26199.76124973  .00000975  00000+0  91469-4 0  9996
2 60551  97.6864 274.9711 0006460   7.5653 352.5665 14.96242761104719
SATELIOT_3              
1 60552U 24149CN  26199.72849468  .00000421  00000+0  40406-4 0  9997
2 60552  97.6811 275.9236 0004702 349.7723  10.3403 14.98166936104801
BRO-15                  
1 60553U 24149CP  26199.74397513  .00000505  00000+0  49844-4 0  9997
2 60553  97.6789 274.5264 0007351 352.9628   7.1489 14.96224367104725
UM5-RIBAT               
1 60554U 24149CQ  26199.80080874  .00001057  00000+0  86955-4 0  9991
2 60554  97.6599 277.1716 0000417 301.9053  58.2131 15.01226677104935
UM5-EOSAT               
1 60555U 24149CR  26199.75690568  .00001609  00000+0  12822-3 0  9997
2 60555  97.6778 278.1410 0008992  26.3960 333.7721 15.01741332104956
LASARSAT                
1 62391U 24247Q   26198.96507674  .00021749  00000+0  40983-3 0  9999
2 62391  44.9738  89.0178 0007822 183.9645 176.1185 15.48162669 88087
CROCUBE                 
1 62394U 24247T   26199.69575181  .00023011  00000+0  40086-3 0  9999
2 62394  44.9712  81.6809 0008147 194.4286 165.6374 15.50367216 88238
TEVEL2-4                
1 63213U 25052D   26199.66508882  .00010338  00000+0  30055-3 0  9999
2 63213  97.3855  96.1261 0003268  45.1827 314.9681 15.35641020 74948
TEVEL2-5                
1 63214U 25052E   26199.68928465  .00009347  00000+0  27363-3 0  9991
2 63214  97.3856  96.0888 0003253  46.6134 313.5380 15.35452998 74940
TEVEL2-6                
1 63215U 25052F   26199.70233986  .00009608  00000+0  28152-3 0  9999
2 63215  97.3856  96.0869 0003345  48.8553 311.2979 15.35416881 74941
TEVEL2-1                
1 63217U 25052H   26199.22116709  .00009517  00000+0  28401-3 0  9997
2 63217  97.3830  95.1910 0004044  53.7107 306.4510 15.34835684 74851
TEVEL2-3                
1 63218U 25052J   26199.27979625  .00009943  00000+0  29602-3 0  9994
2 63218  97.3839  95.2758 0003778  55.7421 304.4179 15.34900151 74868
TEVEL2-2                
1 63219U 25052K   26199.28646794  .00009641  00000+0  28757-3 0  9999
2 63219  97.3833  95.2592 0004077  53.6322 306.5297 15.34848337 74860
TEVEL2-9                
1 63237U 25052AD  26199.69657294  .00008654  00000+0  27545-3 0  9998
2 63237  97.3893  94.9749 0007371  46.9619 313.2239 15.32797358 74854
TEVEL2-7                
1 63238U 25052AE  26199.67848182  .00008389  00000+0  26975-3 0  9996
2 63238  97.3894  94.8589 0007496  47.1803 313.0068 15.32478825 74845
TEVEL2-8                
1 63239U 25052AF  26199.68703718  .00008343  00000+0  26842-3 0  9996
2 63239  97.3898  94.8441 0007519  48.0936 312.0946 15.32464515 74845
FORESAIL-1 PRIME        
1 66778U 25276DS  26199.75159348  .00002320  00000+0  11424-3 0  9996
2 66778  97.4186 272.4479 0002580  37.1807 322.9605 15.18955093 35198
